FORMOSAT 7-3            
1 44343U 19036E   26068.82630502  .00006445  00000+0  37650-3 0  9997
2 44343  23.9981 141.9797 0001061 150.4425 209.6139 15.08933962368215
STARLINK-4513           
1 53548U 22101X   26068.27998879 -.00000584  00000+0 -18609-4 0  9998
2 53548  53.2166  65.9596 0001296  87.0326 273.0814 15.08836724196245
